{
"type": "FeatureCollection",
"name": "ca1",
"crs": { "type": "name", "properties": { "name": "urn:ogc:def:crs:EPSG::6370" } },
"xy_coordinate_resolution": 0.1,
"features": [
{ "type": "Feature", "properties": { "fid": 4, "Pais": "México", "Estado": "Tabasco", "Municipio": "Balancan", "OFICINAS DEL PUEBLO": "4.- POB. EL ÁGUILA", "INSTALACIÓN PÚBLICA": "4.- INSTALACIÓN DE LA CASA DEL MAESTRO", "DIRECCIÓN/ REFERENCIA": "CALLE BUGAMBILIA S/N, ENFRENTE DE LA ESCUELA PRIMARIA AÑO DE LA PATRIA POB. EL ÁGUILA.", "Full Address": "México Tabasco Balancan CALLE BUGAMBILIA S/N, ENFRENTE DE LA ESCUELA PRIMARIA AÑO DE LA PATRIA POB. EL ÁGUILA.", "Latitude": 17.6534763, "Longitude": -91.2644428, "ns": 5 }, "geometry": { "type": "Point", "coordinates": [ 684109.3, 1952694.0 ] } },
{ "type": "Feature", "properties": { "fid": 5, "Pais": "México", "Estado": "Tabasco", "Municipio": "Balancan", "OFICINAS DEL PUEBLO": "5.- POB. MULTÉ", "INSTALACIÓN PÚBLICA": "5.- CASA EJIDAL", "DIRECCIÓN/ REFERENCIA": "CALLE LIBERTAD S/N POB. MULTÉ, A 50 METROS DEL PARQUE CENTRAL.", "Full Address": "México Tabasco Balancan CALLE LIBERTAD S/N POB. MULTÉ, A 50 METROS DEL PARQUE CENTRAL.", "Latitude": 17.680609, "Longitude": -91.371386, "ns": 5 }, "geometry": { "type": "Point", "coordinates": [ 672736.2, 1955595.7 ] } },
{ "type": "Feature", "properties": { "fid": 8, "Pais": "México", "Estado": "Tabasco", "Municipio": "Balancan", "OFICINAS DEL PUEBLO": "8.- POB. MACTUN", "INSTALACIÓN PÚBLICA": "8.- ANTIGUO CENTRO INTEGRADOR", "DIRECCIÓN/ REFERENCIA": "CALLE NICOLAS BRAVO S/N, A UN COSTADO DEL POBLADO MACTUN", "Full Address": "México Tabasco Balancan CALLE NICOLAS BRAVO S/N, A UN COSTADO DEL POBLADO MACTUN", "Latitude": 17.6048903, "Longitude": -91.3549114, "ns": 5 }, "geometry": { "type": "Point", "coordinates": [ 674556.8, 1947231.1 ] } }
]
}
